{
    "links": {
        "self": "http://www.neowsapp.com/rest/v1/neo/3715741?api_key=iIulBulltgU6a56xZRHN4H3l9WmuAYTsLGpBGhQ2"
    },
    "id": "3715741",
    "neo_reference_id": "3715741",
    "name": "(2015 GL13)",
    "designation": "2015 GL13",
    "nasa_jpl_url": "http://ssd.jpl.nasa.gov/sbdb.cgi?sstr=3715741",
    "absolute_magnitude_h": 28.8,
    "estimated_diameter": {
        "kilometers": {
            "estimated_diameter_min": 0.0046190746,
            "estimated_diameter_max": 0.0103285648
        },
        "meters": {
            "estimated_diameter_min": 4.6190746028,
            "estimated_diameter_max": 10.328564805
        },
        "miles": {
            "estimated_diameter_min": 0.002870159,
            "estimated_diameter_max": 0.0064178706
        },
        "feet": {
            "estimated_diameter_min": 15.1544447199,
            "estimated_diameter_max": 33.886368555
        }
    },
    "is_potentially_hazardous_asteroid": false,
    "close_approach_data": [
        {
            "close_approach_date": "2013-05-25",
            "close_approach_date_full": "2013-May-25 12:28",
            "epoch_date_close_approach": 1369484880000,
            "relative_velocity": {
                "kilometers_per_second": "6.1148370832",
                "kilometers_per_hour": "22013.4134995407",
                "miles_per_hour": "13678.2790714229"
            },
            "miss_distance": {
                "astronomical": "1.9222323566",
                "lunar": "747.7483867174",
                "kilometers": "287561866.192440442",
                "miles": "178682658.0270324196"
            },
            "orbiting_body": "Juptr"
        },
        {
            "close_approach_date": "2015-04-16",
            "close_approach_date_full": "2015-Apr-16 07:53",
            "epoch_date_close_approach": 1429170780000,
            "relative_velocity": {
                "kilometers_per_second": "13.9669821596",
                "kilometers_per_hour": "50281.1357746716",
                "miles_per_hour": "31242.7423928786"
            },
            "miss_distance": {
                "astronomical": "0.0012411653",
                "lunar": "0.4828133017",
                "kilometers": "185675.685197911",
                "miles": "115373.5208407318"
            },
            "orbiting_body": "Earth"
        },
        {
            "close_approach_date": "2015-04-16",
            "close_approach_date_full": "2015-Apr-16 14:38",
            "epoch_date_close_approach": 1429195080000,
            "relative_velocity": {
                "kilometers_per_second": "13.7866477525",
                "kilometers_per_hour": "49631.9319090778",
                "miles_per_hour": "30839.3523576156"
            },
            "miss_distance": {
                "astronomical": "0.0011223919",
                "lunar": "0.4366104491",
                "kilometers": "167907.437545253",
                "miles": "104332.8437123714"
            },
            "orbiting_body": "Moon"
        },
        {
            "close_approach_date": "2167-08-09",
            "close_approach_date_full": "2167-Aug-09 15:30",
            "epoch_date_close_approach": 6235803000000,
            "relative_velocity": {
                "kilometers_per_second": "4.117441329",
                "kilometers_per_hour": "14822.7887844737",
                "miles_per_hour": "9210.3045088859"
            },
            "miss_distance": {
                "astronomical": "1.7080490401",
                "lunar": "664.4310765989",
                "kilometers": "255520498.254504587",
                "miles": "158773075.2100218206"
            },
            "orbiting_body": "Juptr"
        },
        {
            "close_approach_date": "2169-03-27",
            "close_approach_date_full": "2169-Mar-27 07:04",
            "epoch_date_close_approach": 6287267040000,
            "relative_velocity": {
                "kilometers_per_second": "23.5788971188",
                "kilometers_per_hour": "84884.02962754",
                "miles_per_hour": "52743.6349649567"
            },
            "miss_distance": {
                "astronomical": "0.3349157182",
                "lunar": "130.2822143798",
                "kilometers": "50102678.072240234",
                "miles": "31132360.5273498692"
            },
            "orbiting_body": "Earth"
        }
    ],
    "orbital_data": {
        "orbit_id": "5",
        "orbit_determination_date": "2017-04-06 08:34:27",
        "first_observation_date": "2015-04-15",
        "last_observation_date": "2015-04-16",
        "data_arc_in_days": 1,
        "observations_used": 48,
        "orbit_uncertainty": "7",
        "minimum_orbit_intersection": ".000106705",
        "jupiter_tisserand_invariant": "3.358",
        "epoch_osculation": "2459000.5",
        "eccentricity": ".6129075176870166",
        "semi_major_axis": "2.236532176476957",
        "inclination": "5.137642569775827",
        "ascending_node_longitude": "25.85837309529742",
        "orbital_period": "1221.690376436967",
        "perihelion_distance": ".8657447919653248",
        "perihelion_argument": "230.2428444317809",
        "aphelion_distance": "3.607319560988589",
        "perihelion_time": "2459607.849460827562",
        "mean_anomaly": "181.0300988572916",
        "mean_motion": ".2946736807814858",
        "equinox": "J2000",
        "orbit_class": {
            "orbit_class_type": "APO",
            "orbit_class_description": "Near-Earth asteroid orbits which cross the Earth’s orbit similar to that of 1862 Apollo",
            "orbit_class_range": "a (semi-major axis) > 1.0 AU; q (perihelion) < 1.017 AU"
        }
    },
    "is_sentry_object": false
}